<?xml version="1.0" encoding="UTF-8"?>
<ndm xmlns:xsi="http://www.w3.org/2001/XMLSchema-instance" xsi:noNamespaceSchemaLocation="https://sanaregistry.org/r/ndmxml_unqualified/ndmxml-2.0.0-master-2.0.xsd">
<omm id="CCSDS_OMM_VERS" version="2.0">
<header><CREATION_DATE/><ORIGINATOR/></header><body><segment><metadata><OBJECT_NAME>KUIPER-00089</OBJECT_NAME><OBJECT_ID>2025-151U</OBJECT_ID><CENTER_NAME>EARTH</CENTER_NAME><REF_FRAME>TEME</REF_FRAME><TIME_SYSTEM>UTC</TIME_SYSTEM><MEAN_ELEMENT_THEORY>SGP4</MEAN_ELEMENT_THEORY></metadata><data><meanElements><EPOCH>2025-08-09T08:00:01.999872</EPOCH><MEAN_MOTION>15.35473474</MEAN_MOTION><ECCENTRICITY>.0005221</ECCENTRICITY><INCLINATION>51.8782</INCLINATION><RA_OF_ASC_NODE>171.6230</RA_OF_ASC_NODE><ARG_OF_PERICENTER>241.5585</ARG_OF_PERICENTER><MEAN_ANOMALY>20.1807</MEAN_ANOMALY></meanElements><tleParameters><EPHEMERIS_TYPE>0</EPHEMERIS_TYPE><CLASSIFICATION_TYPE>U</CLASSIFICATION_TYPE><NORAD_CAT_ID>64834</NORAD_CAT_ID><ELEMENT_SET_NO>999</ELEMENT_SET_NO><REV_AT_EPOCH>477</REV_AT_EPOCH><BSTAR>.21611E-2</BSTAR><MEAN_MOTION_DOT>.76041E-3</MEAN_MOTION_DOT><MEAN_MOTION_DDOT>0</MEAN_MOTION_DDOT></tleParameters></data></segment></body></omm>
<omm id="CCSDS_OMM_VERS" version="2.0">
<header><CREATION_DATE/><ORIGINATOR/></header><body><segment><metadata><OBJECT_NAME>KUIPER-00090</OBJECT_NAME><OBJECT_ID>2025-151V</OBJECT_ID><CENTER_NAME>EARTH</CENTER_NAME><REF_FRAME>TEME</REF_FRAME><TIME_SYSTEM>UTC</TIME_SYSTEM><MEAN_ELEMENT_THEORY>SGP4</MEAN_ELEMENT_THEORY></metadata><data><meanElements><EPOCH>2025-08-11T02:41:20.462496</EPOCH><MEAN_MOTION>15.35339465</MEAN_MOTION><ECCENTRICITY>.0005825</ECCENTRICITY><INCLINATION>51.8785</INCLINATION><RA_OF_ASC_NODE>163.0860</RA_OF_ASC_NODE><ARG_OF_PERICENTER>254.0149</ARG_OF_PERICENTER><MEAN_ANOMALY>106.0196</MEAN_ANOMALY></meanElements><tleParameters><EPHEMERIS_TYPE>0</EPHEMERIS_TYPE><CLASSIFICATION_TYPE>U</CLASSIFICATION_TYPE><NORAD_CAT_ID>64835</NORAD_CAT_ID><ELEMENT_SET_NO>999</ELEMENT_SET_NO><REV_AT_EPOCH>396</REV_AT_EPOCH><BSTAR>.89263E-3</BSTAR><MEAN_MOTION_DOT>.30864E-3</MEAN_MOTION_DOT><MEAN_MOTION_DDOT>0</MEAN_MOTION_DDOT></tleParameters></data></segment></body></omm>
<omm id="CCSDS_OMM_VERS" version="2.0">
<header><CREATION_DATE/><ORIGINATOR/></header><body><segment><metadata><OBJECT_NAME>KUIPER-00091</OBJECT_NAME><OBJECT_ID>2025-151W</OBJECT_ID><CENTER_NAME>EARTH</CENTER_NAME><REF_FRAME>TEME</REF_FRAME><TIME_SYSTEM>UTC</TIME_SYSTEM><MEAN_ELEMENT_THEORY>SGP4</MEAN_ELEMENT_THEORY></metadata><data><meanElements><EPOCH>2025-08-11T02:25:17.969088</EPOCH><MEAN_MOTION>15.35971334</MEAN_MOTION><ECCENTRICITY>.0004768</ECCENTRICITY><INCLINATION>51.8789</INCLINATION><RA_OF_ASC_NODE>163.0102</RA_OF_ASC_NODE><ARG_OF_PERICENTER>219.8265</ARG_OF_PERICENTER><MEAN_ANOMALY>140.2371</MEAN_ANOMALY></meanElements><tleParameters><EPHEMERIS_TYPE>0</EPHEMERIS_TYPE><CLASSIFICATION_TYPE>U</CLASSIFICATION_TYPE><NORAD_CAT_ID>64836</NORAD_CAT_ID><ELEMENT_SET_NO>999</ELEMENT_SET_NO><REV_AT_EPOCH>396</REV_AT_EPOCH><BSTAR>.92891E-3</BSTAR><MEAN_MOTION_DOT>.328E-3</MEAN_MOTION_DOT><MEAN_MOTION_DDOT>0</MEAN_MOTION_DDOT></tleParameters></data></segment></body></omm>
<omm id="CCSDS_OMM_VERS" version="2.0">
<header><CREATION_DATE/><ORIGINATOR/></header><body><segment><metadata><OBJECT_NAME>KUIPER-00092</OBJECT_NAME><OBJECT_ID>2025-151X</OBJECT_ID><CENTER_NAME>EARTH</CENTER_NAME><REF_FRAME>TEME</REF_FRAME><TIME_SYSTEM>UTC</TIME_SYSTEM><MEAN_ELEMENT_THEORY>SGP4</MEAN_ELEMENT_THEORY></metadata><data><meanElements><EPOCH>2025-08-11T05:37:02.324352</EPOCH><MEAN_MOTION>15.35913996</MEAN_MOTION><ECCENTRICITY>.0005712</ECCENTRICITY><INCLINATION>51.8789</INCLINATION><RA_OF_ASC_NODE>162.4009</RA_OF_ASC_NODE><ARG_OF_PERICENTER>240.9969</ARG_OF_PERICENTER><MEAN_ANOMALY>119.0445</MEAN_ANOMALY></meanElements><tleParameters><EPHEMERIS_TYPE>0</EPHEMERIS_TYPE><CLASSIFICATION_TYPE>U</CLASSIFICATION_TYPE><NORAD_CAT_ID>64837</NORAD_CAT_ID><ELEMENT_SET_NO>999</ELEMENT_SET_NO><REV_AT_EPOCH>519</REV_AT_EPOCH><BSTAR>.11674E-2</BSTAR><MEAN_MOTION_DOT>.41296E-3</MEAN_MOTION_DOT><MEAN_MOTION_DDOT>0</MEAN_MOTION_DDOT></tleParameters></data></segment></body></omm>
<omm id="CCSDS_OMM_VERS" version="2.0">
<header><CREATION_DATE/><ORIGINATOR/></header><body><segment><metadata><OBJECT_NAME>KUIPER-00093</OBJECT_NAME><OBJECT_ID>2025-151Y</OBJECT_ID><CENTER_NAME>EARTH</CENTER_NAME><REF_FRAME>TEME</REF_FRAME><TIME_SYSTEM>UTC</TIME_SYSTEM><MEAN_ELEMENT_THEORY>SGP4</MEAN_ELEMENT_THEORY></metadata><data><meanElements><EPOCH>2025-08-11T02:35:02.150592</EPOCH><MEAN_MOTION>15.35662240</MEAN_MOTION><ECCENTRICITY>.0004732</ECCENTRICITY><INCLINATION>51.8794</INCLINATION><RA_OF_ASC_NODE>163.0602</RA_OF_ASC_NODE><ARG_OF_PERICENTER>235.8714</ARG_OF_PERICENTER><MEAN_ANOMALY>124.1823</MEAN_ANOMALY></meanElements><tleParameters><EPHEMERIS_TYPE>0</EPHEMERIS_TYPE><CLASSIFICATION_TYPE>U</CLASSIFICATION_TYPE><NORAD_CAT_ID>64838</NORAD_CAT_ID><ELEMENT_SET_NO>999</ELEMENT_SET_NO><REV_AT_EPOCH>396</REV_AT_EPOCH><BSTAR>.97138E-3</BSTAR><MEAN_MOTION_DOT>.33981E-3</MEAN_MOTION_DOT><MEAN_MOTION_DDOT>0</MEAN_MOTION_DDOT></tleParameters></data></segment></body></omm>
<omm id="CCSDS_OMM_VERS" version="2.0">
<header><CREATION_DATE/><ORIGINATOR/></header><body><segment><metadata><OBJECT_NAME>KUIPER-00094</OBJECT_NAME><OBJECT_ID>2025-151Z</OBJECT_ID><CENTER_NAME>EARTH</CENTER_NAME><REF_FRAME>TEME</REF_FRAME><TIME_SYSTEM>UTC</TIME_SYSTEM><MEAN_ELEMENT_THEORY>SGP4</MEAN_ELEMENT_THEORY></metadata><data><meanElements><EPOCH>2025-08-11T05:36:21.048480</EPOCH><MEAN_MOTION>15.35889378</MEAN_MOTION><ECCENTRICITY>.0005111</ECCENTRICITY><INCLINATION>51.8788</INCLINATION><RA_OF_ASC_NODE>162.3986</RA_OF_ASC_NODE><ARG_OF_PERICENTER>237.9486</ARG_OF_PERICENTER><MEAN_ANOMALY>122.1004</MEAN_ANOMALY></meanElements><tleParameters><EPHEMERIS_TYPE>0</EPHEMERIS_TYPE><CLASSIFICATION_TYPE>U</CLASSIFICATION_TYPE><NORAD_CAT_ID>64839</NORAD_CAT_ID><ELEMENT_SET_NO>999</ELEMENT_SET_NO><REV_AT_EPOCH>398</REV_AT_EPOCH><BSTAR>.10404E-2</BSTAR><MEAN_MOTION_DOT>.36707E-3</MEAN_MOTION_DOT><MEAN_MOTION_DDOT>0</MEAN_MOTION_DDOT></tleParameters></data></segment></body></omm>
</ndm>
