KUIPER-00089            
1 64834U 25151U   25221.33335648  .00076041  00000+0  21611-2 0  9996
2 64834  51.8782 171.6230 0005221 241.5585  20.1807 15.35473474  4777
KUIPER-00090            
1 64835U 25151V   25223.11204239  .00030864  00000+0  89263-3 0  9997
2 64835  51.8785 163.0860 0005825 254.0149 106.0196 15.35339465  3966
KUIPER-00091            
1 64836U 25151W   25223.10090242  .00032800  00000+0  92891-3 0  9997
2 64836  51.8789 163.0102 0004768 219.8265 140.2371 15.35971334  3965
KUIPER-00092            
1 64837U 25151X   25223.23405468  .00041296  00000+0  11674-2 0  9990
2 64837  51.8789 162.4009 0005712 240.9969 119.0445 15.35913996  5194
KUIPER-00093            
1 64838U 25151Y   25223.10766378  .00033981  00000+0  97138-3 0  9999
2 64838  51.8794 163.0602 0004732 235.8714 124.1823 15.35662240  3962
KUIPER-00094            
1 64839U 25151Z   25223.23357695  .00036707  00000+0  10404-2 0  9991
2 64839  51.8788 162.3986 0005111 237.9486 122.1004 15.35889378  3988
